SL-8 R/B                
1 19257U 88053B   26090.71736992  .00000408  00000+0  14075-3 0  9990
2 19257  74.0461  71.8585 0021411 248.2273 284.8247 14.38931655979767
COSMOS 1975             
1 19573U 88093A   26090.72535839  .00008877  00000+0  31929-3 0  9998
2 19573  82.5154  95.5539 0013389  93.7039 266.5731 15.28379459 22774
SL-14 R/B               
1 19574U 88093B   26090.88885816  .00000710  00000+0  78832-4 0  9992
2 19574  82.5343  21.2085 0019848 328.6618  95.9420 14.85683524  4318
SL-16 R/B               
1 19650U 88102B   26090.44853971  .00000044  00000+0  46463-4 0  9992
2 19650  70.9970 105.7134 0015228 329.4256  30.5978 14.16153588929975
INTERCOSMOS 24          
1 20261U 89080A   26090.72587283  .00000613  00000+0  18110-3 0  9998
2 20261  82.6014  90.0497 1186921 241.6271 106.0225 12.59586061669576
SL-14 R/B               
1 20262U 89080C   26090.48078088  .00000487  00000+0  13785-3 0  9992
2 20262  82.5951 159.2034 1230903 134.9651 235.8177 12.50514838662874
DELTA 1 R/B             
1 20323U 89089B   26090.55497846  .00000479  00000+0  12690-3 0  9999
2 20323  97.0689 294.5129 0070363  54.2402 306.5312 14.50681580898901
ARIANE 40 R/B           
1 20443U 90005H   26090.42516231  .00000359  00000+0  12766-3 0  9999
2 20443  98.3038 150.4341 0011100 135.3902 224.8182 14.39884987895932
DELTA 2 R/B(1)          
1 20453U 90008B   26090.87499801  .00070872  00000+0  75838-3 0  9991
2 20453  35.6042  28.9373 0076971 107.0772 253.8413 15.58979232929593
COSMOS 2058             
1 20465U 90010A   26090.89294015  .00006522  00000+0  38301-3 0  9994
2 20465  82.4711  25.5497 0007639 253.5175 106.5216 15.11534249945595
SL-14 R/B               
1 20466U 90010B   26090.67436439  .00000702  00000+0  82096-4 0  9994
2 20466  82.5001 246.7321 0018761 224.4312 135.5399 14.83590503931749
SL-14 R/B               
1 20511U 90018B   26090.71327417  .00000620  00000+0  74783-4 0  9996
2 20511  82.5240 202.5092 0016713  24.3549 335.8451 14.82167425925844
HST                     
1 20580U 90037B   26090.73378070  .00010424  00000+0  34249-3 0  9991
2 20580  28.4719 249.5828 0001920  22.4714 337.5965 15.29835555776699
SL-16 R/B               
1 20625U 90046B   26090.68234122  .00000153  00000+0  10376-3 0  9997
2 20625  70.9982 251.7206 0016435 270.8910  89.0329 14.15017958851502
COSMOS 2084             
1 20663U 90055A   26090.83708333  .00004014  00000+0  28884-3 0  9999
2 20663  62.7893 260.0317 0013571 197.2264 162.8378 15.05780207939653
SL-6 R/B(2)             
1 20666U 90055D   26090.58411445  .00002867  00000+0  22091-3 0  9997
2 20666  62.7835 179.3893 0028399 351.9848   8.0793 15.03702248941487
SL-8 R/B                
1 20775U 90078B   26090.87958078  .00013307  00000+0  39426-3 0  9994
2 20775  82.9031 231.3410 0358009 299.1311  57.4510 14.89719983812609
